start=new Date('2023-03-06T00:00:00.000Z').valueOf();
sats=[{"SITE":"AFETR","CLASSIFICATION_TYPE":"U","MEAN_MOTION_DDOT":"0.0000000000000","RCS_SIZE":"LARGE","PERIOD":"95.593","EPHEMERIS_TYPE":"0","MEAN_ANOMALY":"295.9018","TIME_SYSTEM":"UTC","TLE_LINE2":"2 45565  53.0531 347.9431 0001214  64.2096 295.9018 15.06388254159461","OBJECT_TYPE":"PAYLOAD","ARG_OF_PERICENTER":"64.2096","ELEMENT_SET_NO":"999","REV_AT_EPOCH":"15946","BSTAR":"0.00023050000000","REF_FRAME":"TEME","EPOCH":"2023-03-04T23:18:19.568448","APOAPSIS":"548.090","FILE":"3851939","OBJECT_ID":"2020-025AL","TLE_LINE1":"1 45565U 20025AL  23063.97105982  .00003152  00000-0  23050-3 0  9993","ECCENTRICITY":"0.00012140","MEAN_ELEMENT_THEORY":"SGP4","SEMIMAJOR_AXIS":"6925.385","DECAY_DATE":null,"MEAN_MOTION_DOT":"0.00003152","RA_OF_ASC_NODE":"347.9431","LAUNCH_DATE":"2020-04-22","COUNTRY_CODE":"US","MEAN_MOTION":"15.06388254","OBJECT_NAME":"STARLINK-1357","PERIAPSIS":"546.409","INCLINATION":"53.0531","GP_ID":"227545562","NORAD_CAT_ID":"45565","CENTER_NAME":"EARTH"},{"PERIOD":"95.591","EPHEMERIS_TYPE":"0","MEAN_ANOMALY":"253.5923","RCS_SIZE":"LARGE","MEAN_MOTION_DDOT":"0.0000000000000","CLASSIFICATION_TYPE":"U","SITE":"AFETR","BSTAR":"0.00244420000000","ELEMENT_SET_NO":"999","TLE_LINE2":"2 45566  53.0549 343.6991 0001269 106.5206 253.5923 15.06419978159607","ARG_OF_PERICENTER":"106.5206","OBJECT_TYPE":"PAYLOAD","TIME_SYSTEM":"UTC","REV_AT_EPOCH":"15960","MEAN_MOTION_DOT":"0.00036333","SEMIMAJOR_AXIS":"6925.287","MEAN_ELEMENT_THEORY":"SGP4","DECAY_DATE":null,"TLE_LINE1":"1 45566U 20025AM  23064.91466223  .00036333  00000-0  24442-2 0  9999","ECCENTRICITY":"0.00012690","APOAPSIS":"548.031","EPOCH":"2023-03-05T21:57:06.816672","REF_FRAME":"TEME","OBJECT_ID":"2020-025AM","FILE":"3852256","NORAD_CAT_ID":"45566","CENTER_NAME":"EARTH","PERIAPSIS":"546.274","GP_ID":"227579242","INCLINATION":"53.0549","OBJECT_NAME":"STARLINK-1358","RA_OF_ASC_NODE":"343.6991","MEAN_MOTION":"15.06419978","COUNTRY_CODE":"US","LAUNCH_DATE":"2020-04-22"},{"BSTAR":"0.00046572000000","ELEMENT_SET_NO":"999","TIME_SYSTEM":"UTC","TLE_LINE2":"2 45567  53.0561 343.6466 0001243 122.8855 237.2253 15.06413732159610","OBJECT_TYPE":"PAYLOAD","ARG_OF_PERICENTER":"122.8855","REV_AT_EPOCH":"15961","PERIOD":"95.591","EPHEMERIS_TYPE":"0","MEAN_ANOMALY":"237.2253","RCS_SIZE":"LARGE","MEAN_MOTION_DDOT":"0.0000000000000","CLASSIFICATION_TYPE":"U","SITE":"AFETR","NORAD_CAT_ID":"45567","CENTER_NAME":"EARTH","PERIAPSIS":"546.311","GP_ID":"227578488","INCLINATION":"53.0561","OBJECT_NAME":"STARLINK-1361","RA_OF_ASC_NODE":"343.6466","COUNTRY_CODE":"US","MEAN_MOTION":"15.06413732","LAUNCH_DATE":"2020-04-22","MEAN_MOTION_DOT":"0.00006665","MEAN_ELEMENT_THEORY":"SGP4","SEMIMAJOR_AXIS":"6925.306","DECAY_DATE":null,"ECCENTRICITY":"0.00012430","TLE_LINE1":"1 45567U 20025AN  23064.92571692  .00006665  00000-0  46572-3 0  9992","APOAPSIS":"548.032","EPOCH":"2023-03-05T22:13:01.941888","REF_FRAME":"TEME","OBJECT_ID":"2020-025AN","FILE":"3852256"},{"NORAD_CAT_ID":"45568","CENTER_NAME":"EARTH","PERIAPSIS":"546.711","INCLINATION":"53.0550","GP_ID":"227578738","OBJECT_NAME":"STARLINK-1363","RA_OF_ASC_NODE":"343.8355","LAUNCH_DATE":"2020-04-22","COUNTRY_CODE":"US","MEAN_MOTION":"15.06406839","MEAN_MOTION_DOT":"0.00016894","SEMIMAJOR_AXIS":"6925.328","MEAN_ELEMENT_THEORY":"SGP4","DECAY_DATE":null,"TLE_LINE1":"1 45568U 20025AP  23064.94049457  .00016894  00000-0  11501-2 0  9992","ECCENTRICITY":"0.00006950","EPOCH":"2023-03-05T22:34:18.730848","REF_FRAME":"TEME","APOAPSIS":"547.674","FILE":"3852256","OBJECT_ID":"2020-025AP","BSTAR":"0.00115010000000","OBJECT_TYPE":"PAYLOAD","TLE_LINE2":"2 45568  53.0550 343.8355 0000695  69.6392 290.4671 15.06406839159606","ARG_OF_PERICENTER":"69.6392","TIME_SYSTEM":"UTC","ELEMENT_SET_NO":"999","REV_AT_EPOCH":"15960","EPHEMERIS_TYPE":"0","PERIOD":"95.592","MEAN_ANOMALY":"290.4671","RCS_SIZE":"LARGE","MEAN_MOTION_DDOT":"0.0000000000000","SITE":"AFETR","CLASSIFICATION_TYPE":"U"},{"BSTAR":"0.00171390000000","REV_AT_EPOCH":"15960","TLE_LINE2":"2 45569  53.0534 343.6413 0001254  51.0365 309.0735 15.06413544159608","OBJECT_TYPE":"PAYLOAD","TIME_SYSTEM":"UTC","ARG_OF_PERICENTER":"51.0365","ELEMENT_SET_NO":"999","RCS_SIZE":"LARGE","MEAN_ANOMALY":"309.0735","PERIOD":"95.591","EPHEMERIS_TYPE":"0","SITE":"AFETR","CLASSIFICATION_TYPE":"U","MEAN_MOTION_DDOT":"0.0000000000000","INCLINATION":"53.0534","GP_ID":"227579006","PERIAPSIS":"546.304","CENTER_NAME":"EARTH","NORAD_CAT_ID":"45569","LAUNCH_DATE":"2020-04-22","COUNTRY_CODE":"US","MEAN_MOTION":"15.06413544","RA_OF_ASC_NODE":"343.6413","OBJECT_NAME":"STARLINK-1366","DECAY_DATE":null,"MEAN_ELEMENT_THEORY":"SGP4","SEMIMAJOR_AXIS":"6925.307","MEAN_MOTION_DOT":"0.00025349","FILE":"3852256","OBJECT_ID":"2020-025AQ","REF_FRAME":"TEME","EPOCH":"2023-03-05T22:18:20.772576","APOAPSIS":"548.040","ECCENTRICITY":"0.00012540","TLE_LINE1":"1 45569U 20025AQ  23064.92940709  .00025349  00000-0  17139-2 0  9999"},{"SEMIMAJOR_AXIS":"6925.327","MEAN_ELEMENT_THEORY":"SGP4","DECAY_DATE":null,"MEAN_MOTION_DOT":"0.00016262","EPOCH":"2023-03-05T22:07:43.811904","REF_FRAME":"TEME","APOAPSIS":"547.991","FILE":"3852256","OBJECT_ID":"2020-025AR","TLE_LINE1":"1 45570U 20025AR  23064.92203486  .00016262  00000-0  11079-2 0  9996","ECCENTRICITY":"0.00011550","PERIAPSIS":"546.392","INCLINATION":"53.0552","GP_ID":"227579720","NORAD_CAT_ID":"45570","CENTER_NAME":"EARTH","RA_OF_ASC_NODE":"343.6681","LAUNCH_DATE":"2020-04-22","MEAN_MOTION":"15.06407196","COUNTRY_CODE":"US","OBJECT_NAME":"STARLINK-1376","RCS_SIZE":"LARGE","EPHEMERIS_TYPE":"0","PERIOD":"95.592","MEAN_ANOMALY":"279.2673","SITE":"AFETR","CLASSIFICATION_TYPE":"U","MEAN_MOTION_DDOT":"0.0000000000000","BSTAR":"0.00110790000000","OBJECT_TYPE":"PAYLOAD","TLE_LINE2":"2 45570  53.0552 343.6681 0001155  80.8447 279.2673 15.06407196159603","TIME_SYSTEM":"UTC","ARG_OF_PERICENTER":"80.8447","ELEMENT_SET_NO":"999","REV_AT_EPOCH":"15960"},{"MEAN_MOTION_DOT":"0.00048659","MEAN_ELEMENT_THEORY":"SGP4","SEMIMAJOR_AXIS":"6925.320","DECAY_DATE":null,"TLE_LINE1":"1 45571U 20025AS  23064.93772775  .00048659  00000-0  32623-2 0  9993","ECCENTRICITY":"0.00012150","APOAPSIS":"548.026","EPOCH":"2023-03-05T22:30:19.677600","REF_FRAME":"TEME","OBJECT_ID":"2020-025AS","FILE":"3852256","NORAD_CAT_ID":"45571","CENTER_NAME":"EARTH","PERIAPSIS":"546.343","GP_ID":"227578011","INCLINATION":"53.0553","OBJECT_NAME":"STARLINK-1261","RA_OF_ASC_NODE":"333.5975","MEAN_MOTION":"15.06409438","COUNTRY_CODE":"US","LAUNCH_DATE":"2020-04-22","EPHEMERIS_TYPE":"0","PERIOD":"95.592","MEAN_ANOMALY":"218.5836","RCS_SIZE":"LARGE","MEAN_MOTION_DDOT":"0.0000000000000","CLASSIFICATION_TYPE":"U","SITE":"AFETR","BSTAR":"0.00326230000000","ELEMENT_SET_NO":"999","TLE_LINE2":"2 45571  53.0553 333.5975 0001215 141.5240 218.5836 15.06409438159767","TIME_SYSTEM":"UTC","OBJECT_TYPE":"PAYLOAD","ARG_OF_PERICENTER":"141.5240","REV_AT_EPOCH":"15976"},{"CENTER_NAME":"EARTH","NORAD_CAT_ID":"45572","GP_ID":"227578261","INCLINATION":"53.0546","PERIAPSIS":"546.738","OBJECT_NAME":"STARLINK-1320","MEAN_MOTION":"15.06409713","COUNTRY_CODE":"US","LAUNCH_DATE":"2020-04-22","RA_OF_ASC_NODE":"333.6354","MEAN_MOTION_DOT":"0.00019098","DECAY_DATE":null,"SEMIMAJOR_AXIS":"6925.319","MEAN_ELEMENT_THEORY":"SGP4","ECCENTRICITY":"0.00006430","TLE_LINE1":"1 45572U 20025AT  23064.93032685  .00019098  00000-0  12972-2 0  9993","OBJECT_ID":"2020-025AT","FILE":"3852256","APOAPSIS":"547.629","EPOCH":"2023-03-05T22:19:40.239840","REF_FRAME":"TEME","BSTAR":"0.00129720000000","REV_AT_EPOCH":"15975","ELEMENT_SET_NO":"999","OBJECT_TYPE":"PAYLOAD","TLE_LINE2":"2 45572  53.0546 333.6354 0000643  70.1165 289.9893 15.06409713159759","ARG_OF_PERICENTER":"70.1165","TIME_SYSTEM":"UTC","MEAN_ANOMALY":"289.9893","EPHEMERIS_TYPE":"0","PERIOD":"95.592","RCS_SIZE":"LARGE","MEAN_MOTION_DDOT":"0.0000000000000","CLASSIFICATION_TYPE":"U","SITE":"AFETR"},{"OBJECT_ID":"2020-025AU","FILE":"3852256","APOAPSIS":"547.965","EPOCH":"2023-03-05T21:47:51.657792","REF_FRAME":"TEME","ECCENTRICITY":"0.00009120","TLE_LINE1":"1 45573U 20025AU  23064.90823678  .00009715  00000-0  67089-3 0  9996","DECAY_DATE":null,"MEAN_ELEMENT_THEORY":"SGP4","SEMIMAJOR_AXIS":"6925.468","MEAN_MOTION_DOT":"0.00009715","MEAN_MOTION":"15.06360896","COUNTRY_CODE":"US","LAUNCH_DATE":"2020-04-22","RA_OF_ASC_NODE":"333.7299","OBJECT_NAME":"STARLINK-1321","GP_ID":"227579483","INCLINATION":"53.0550","PERIAPSIS":"546.702","CENTER_NAME":"EARTH","NORAD_CAT_ID":"45573","CLASSIFICATION_TYPE":"U","SITE":"AFETR","MEAN_MOTION_DDOT":"0.0000000000000","RCS_SIZE":"LARGE","MEAN_ANOMALY":"314.6502","PERIOD":"95.595","EPHEMERIS_TYPE":"0","REV_AT_EPOCH":"15944","ELEMENT_SET_NO":"999","ARG_OF_PERICENTER":"45.4562","TLE_LINE2":"2 45573  53.0550 333.7299 0000912  45.4562 314.6502 15.06360896159446","OBJECT_TYPE":"PAYLOAD","TIME_SYSTEM":"UTC","BSTAR":"0.00067089000000"},{"BSTAR":"0.00102790000000","ELEMENT_SET_NO":"999","ARG_OF_PERICENTER":"124.6255","TLE_LINE2":"2 45574  53.0543 333.6145 0001450 124.6255 235.4871 15.06408931159762","OBJECT_TYPE":"PAYLOAD","TIME_SYSTEM":"UTC","REV_AT_EPOCH":"15976","RCS_SIZE":"LARGE","EPHEMERIS_TYPE":"0","PERIOD":"95.592","MEAN_ANOMALY":"235.4871","CLASSIFICATION_TYPE":"U","SITE":"AFETR","MEAN_MOTION_DDOT":"0.0000000000000","PERIAPSIS":"546.182","GP_ID":"227579243","INCLINATION":"53.0543","NORAD_CAT_ID":"45574","CENTER_NAME":"EARTH","RA_OF_ASC_NODE":"333.6145","COUNTRY_CODE":"US","MEAN_MOTION":"15.06408931","LAUNCH_DATE":"2020-04-22","OBJECT_NAME":"STARLINK-1324","MEAN_ELEMENT_THEORY":"SGP4","SEMIMAJOR_AXIS":"6925.321","DECAY_DATE":null,"MEAN_MOTION_DOT":"0.00015066","APOAPSIS":"548.190","EPOCH":"2023-03-05T22:24:58.391424","REF_FRAME":"TEME","OBJECT_ID":"2020-025AV","FILE":"3852256","TLE_LINE1":"1 45574U 20025AV  23064.93400916  .00015066  00000-0  10279-2 0  9990","ECCENTRICITY":"0.00014500"}];
